OBJECT_NAME,OBJECT_ID,EPOCH,MEAN_MOTION,ECCENTRICITY,INCLINATION,RA_OF_ASC_NODE,ARG_OF_PERICENTER,MEAN_ANOMALY,EPHEMERIS_TYPE,CLASSIFICATION_TYPE,NORAD_CAT_ID,ELEMENT_SET_NO,REV_AT_EPOCH,BSTAR,MEAN_MOTION_DOT,MEAN_MOTION_DDOT
LEMUR-1,2014-033AL,2026-07-02T15:41:47.399712,14.85304077,.0048828,97.7894,333.1168,28.9592,331.4316,0,U,40044,999,64776,.25034E-3,.2142E-4,0
LEMUR-2-GREENBERG,2017-042N,2026-07-02T18:25:12.191808,15.31811302,.0007327,97.3822,4.3251,312.9409,47.1217,0,U,42837,999,49077,.58454E-3,.17912E-3,0
LEMUR-2-ANDIS,2017-042P,2026-07-02T18:15:01.870848,15.35476861,.0007228,97.3679,4.5569,310.6779,49.3836,0,U,42838,999,49084,.66599E-3,.22937E-3,0
LEMUR-2-MONSON,2017-042Q,2026-07-02T17:52:26.684256,15.28463603,.0005199,97.4084,4.2506,302.4292,57.6444,0,U,42839,999,49054,.58314E-3,.16104E-3,0
LEMUR-2-FURIAUS,2017-042R,2026-07-02T10:41:09.276864,15.30756022,.0007035,97.3770,1.9246,18.4944,341.6552,0,U,42840,999,49054,.68474E-3,.20324E-3,0
LEMUR-2-PETERG,2017-042S,2026-07-02T18:05:57.210432,15.34578984,.0002756,97.3990,8.8153,281.0943,78.9990,0,U,42841,999,49082,.8022E-3,.26861E-3,0
LEMUR-2-DEMBITZ,2017-042T,2026-07-02T11:09:25.805664,15.30760619,.0005474,97.3821,4.9796,331.2654,28.8285,0,U,42842,999,49068,.63943E-3,.18968E-3,0
LEMUR-2-ZACHARY,2017-042W,2026-07-02T19:17:38.438304,15.51664987,.0002308,97.3582,15.7860,312.5959,47.5099,0,U,42845,999,49162,.82452E-3,.4915E-3,0
LEMUR-2-AMANDA-SVANTE,2021-034B,2026-07-02T16:18:17.023680,15.35250832,.0003813,97.5757,262.3826,170.9854,189.1458,0,U,48269,999,28343,.92804E-3,.3178E-3,0
LEMUR-2-SPECIAL-K,2021-034F,2026-07-02T16:03:34.204032,15.69627128,.0005439,97.5645,271.7015,222.2477,137.8366,0,U,48273,999,28411,.16759E-2,.20253E-2,0
LEMUR-2-EMBRIONOVIS,2023-084AQ,2026-07-02T08:43:45.305184,15.37934897,.0007549,97.6312,328.1499,257.5694,102.4705,0,U,56970,999,17001,.41231E-3,.15319E-3,0
LEMUR-2-DEVERILL-M-T,2023-100F,2026-07-02T13:37:32.645280,15.40525966,.0005011,99.4457,226.7754,352.1145,8.0015,0,U,57391,999,16361,.65917E-3,.26718E-3,0
LEMUR-2-BASS,2023-174D,2026-07-02T16:57:01.274400,15.43620450,.0008071,97.3849,268.6402,115.4068,244.8016,0,U,58259,999,14775,.42298E-3,.18988E-3,0
LEMUR-2-JK0903EM1407,2023-174CJ,2026-07-02T16:21:41.014944,15.52485286,.0004634,97.3930,274.5964,73.4600,286.7161,0,U,58336,999,14813,.45572E-3,.27865E-3,0
LEMUR-2-MJR092620,2023-174CN,2026-07-02T12:10:20.261280,15.45448019,.0006365,97.3980,273.8231,71.8734,288.3207,0,U,58340,999,14801,.44953E-3,.21474E-3,0
LEMUR-2-NIMBUS2000,2024-022A,2026-07-02T12:58:20.273088,15.40633822,.0009881,97.4088,33.7389,69.3006,290.9299,0,U,58899,999,13463,.57718E-3,.23509E-3,0
LEMUR-2-VALHALLA,2024-022B,2026-07-02T12:58:35.703264,15.40141147,.001039,97.4086,33.7200,65.0713,295.1611,0,U,58900,999,13463,.41808E-3,.16719E-3,0
LEMUR-2-CAEL,2024-022E,2026-07-02T20:41:13.941024,15.41491218,.0008432,97.4070,35.0091,50.7959,309.4035,0,U,58903,999,13475,.50044E-3,.20942E-3,0
LEMUR-2-JOHNNYTRUONG,2024-043BA,2026-07-02T09:45:31.434048,15.61639664,.0004628,97.5387,336.0648,130.9750,229.1908,0,U,59146,999,13041,.5321E-3,.45845E-3,0
LEMUR-2-TOMATOKECHUP,2024-149D,2026-07-02T16:12:40.893120,15.36355061,.0002699,97.3796,265.7643,145.5081,214.6338,0,U,60471,999,10454,.32266E-3,.11363E-3,0
LEMUR-2-STELLA,2024-149BT,2026-07-02T04:06:22.244256,15.12128587,.00011481,97.6740,265.6937,101.5384,258.5975,0,U,60533,999,10276,.78521518E-3,.13479E-3,0
LEMUR-2-MARHISYAM,2024-149BW,2026-07-02T11:42:38.225088,15.11560020,.0003268,97.6884,266.4769,90.7390,269.4214,0,U,60536,999,10279,.6723E-3,.11348E-3,0
LEMUR-2-AHMED-ASRAR,2024-149DN,2026-07-02T12:10:21.252288,15.13059697,.0000514,97.7010,268.6488,328.7349,31.3850,0,U,60576,999,10288,.78865E-3,.13895E-3,0
LEMUR-2-LLOYD,2024-149DP,2026-07-02T11:43:55.675776,15.09540030,.0005228,97.6750,264.6282,101.9069,258.2746,0,U,60577,999,10270,.74606E-3,.1192E-3,0
LEMUR-2-SQUIRRELCOMM,2024-149DQ,2026-07-02T11:00:03.452256,15.07322444,.000522,97.6704,264.3223,14.8025,345.3354,0,U,60578,999,10270,.47354E-3,.7094E-4,0
LEMUR-2-SIERRINI,2024-149DR,2026-07-02T12:20:56.148000,15.11275305,.0006366,97.6844,266.1769,123.5088,236.6750,0,U,60579,999,10277,.84074E-3,.14106E-3,0
LEMUR-2-WILSON,2025-009CP,2026-07-02T11:41:29.176800,14.95230365,.0002908,97.7021,261.6834,15.7604,344.3707,0,U,62694,999,7964,.28214E-3,.3046E-4,0
LEMUR-2-STAR-FOX,2025-009CR,2026-07-02T11:25:07.087008,15.02703717,.0004028,97.6947,264.9756,80.7159,279.4522,0,U,62696,999,7985,.66947E-3,.8884E-4,0
LEMUR-2-ARIANNA,2025-009CU,2026-07-02T04:59:21.193152,15.02696305,.00043539,97.6888,264.4724,85.8139,274.3583,0,U,62699,999,7981,.66676694E-3,.8846E-4,0
LEMUR-2-ALISIA,2025-009DB,2026-07-02T15:34:33.415104,15.02999059,.0003127,97.6944,265.7127,169.1629,190.9664,0,U,62706,999,10248,.73362E-3,.9818E-4,0
